[{"OBJECT_NAME":"STARLINK-5385","OBJECT_ID":"2022-177B","EPOCH":"2026-03-08T14:58:13.496448","MEAN_MOTION":15.02539294,"ECCENTRICITY":0.00013771,"INCLINATION":43.0019,"RA_OF_ASC_NODE":139.2425,"ARG_OF_PERICENTER":260.3181,"MEAN_ANOMALY":99.7505,"EPHEMERIS_TYPE":0,"CLASSIFICATION_TYPE":"U","NORAD_CAT_ID":54821,"ELEMENT_SET_NO":999,"REV_AT_EPOCH":17679,"BSTAR":8.519823e-5,"MEAN_MOTION_DOT":9.48e-6,"MEAN_MOTION_DDOT":0},{"OBJECT_NAME":"ICEYE-X37","OBJECT_ID":"2024-043E","EPOCH":"2026-03-09T21:28:27.980256","MEAN_MOTION":15.05207146,"ECCENTRICITY":0.00148076,"INCLINATION":97.8149,"RA_OF_ASC_NODE":204.4924,"ARG_OF_PERICENTER":351.2295,"MEAN_ANOMALY":8.867,"EPHEMERIS_TYPE":0,"CLASSIFICATION_TYPE":"U","NORAD_CAT_ID":59102,"ELEMENT_SET_NO":999,"REV_AT_EPOCH":11014,"BSTAR":0.00044484532,"MEAN_MOTION_DOT":6.299e-5,"MEAN_MOTION_DDOT":0}]
